[{"OBJECT_NAME":"STARLINK-35809","OBJECT_ID":"2025-254AB","EPOCH":"2026-03-09T17:17:47.380128","MEAN_MOTION":15.30203479,"ECCENTRICITY":0.00011798,"INCLINATION":53.1589,"RA_OF_ASC_NODE":229.9053,"ARG_OF_PERICENTER":68.321,"MEAN_ANOMALY":291.7917,"EPHEMERIS_TYPE":0,"CLASSIFICATION_TYPE":"U","NORAD_CAT_ID":66373,"ELEMENT_SET_NO":999,"REV_AT_EPOCH":1901,"BSTAR":0.00094978282,"MEAN_MOTION_DOT":0.00027879,"MEAN_MOTION_DDOT":0},{"OBJECT_NAME":"SL-3 R\/B","OBJECT_ID":"1981-065B","EPOCH":"2026-03-09T21:58:16.284000","MEAN_MOTION":15.33300883,"ECCENTRICITY":0.00117648,"INCLINATION":97.6337,"RA_OF_ASC_NODE":111.1786,"ARG_OF_PERICENTER":10.529,"MEAN_ANOMALY":349.6196,"EPHEMERIS_TYPE":0,"CLASSIFICATION_TYPE":"U","NORAD_CAT_ID":12586,"ELEMENT_SET_NO":999,"REV_AT_EPOCH":43499,"BSTAR":0.00030084921,"MEAN_MOTION_DOT":9.62e-5,"MEAN_MOTION_DDOT":0}]
